STARLINK-1053           
1 44758U 19074AX  21250.73085790 -.00000515  00000-0 -15628-4 0  9997
2 44758  53.0543  46.6324 0002490 104.0005 256.1261 15.06401514100416
STARLINK-1054           
1 44759U 19074AY  21250.91978417 -.00001123  00000-0 -56504-4 0  9999
2 44759  53.0559  45.7970 0001870 104.3755 255.7442 15.06400200100616
STARLINK-1055           
1 44760U 19074AZ  21250.70599357 -.00000509  00000-0 -15243-4 0  9992
2 44760  53.0555  46.7613 0001666  96.9885 263.1294 15.06394299100418
STARLINK-1056           
1 44761U 19074BA  21250.71704935 -.00001028  00000-0 -50140-4 0  9996
2 44761  53.0549  46.7050 0001607 112.7603 247.3555 15.06396674100410
STARLINK-1057           
1 44762U 19074BB  21251.38235969 -.00000248  00000-0  22750-5 0  9996
2 44762  53.0568  23.7235 0001414 117.4605 242.6528 15.06399184100958
STARLINK-1058           
1 44763U 19074BC  21250.93820902 -.00000313  00000-0 -21241-5 0  9992
2 44763  53.0556  45.7114 0001491 103.8431 256.2724 15.06388733100617
STARLINK-1059           
1 44764U 19074BD  21251.11328534 -.00000302  00000-0 -13605-5 0  9991
2 44764  53.0556  24.9267 0001483 109.4304 250.6845 15.06402483100912
STARLINK-1060           
1 44765U 19074BE  21250.86633150 -.00000615  00000-0 -22438-4 0  9996
2 44765  53.0552  26.0295 0001332 116.3707 243.7419 15.06389845100703
STARLINK-1061           
1 44766U 19074BF  21250.86448827 -.00000866  00000-0 -39230-4 0  9998
2 44766  53.0544  46.0377 0001370 111.1097 249.0039 15.06391534100430
STARLINK-1062           
1 44767U 19074BG  21251.12249994  .00000940  00000-0  82033-4 0  9993
2 44767  53.0549  44.8815 0001903 107.9175 252.2022 15.06397248100640
STARLINK-1063           
1 44768U 19074BH  21251.47635955  .00000281  00000-0  37778-4 0  9992
2 44768  53.0563  43.3015 0001387  99.3892 260.7254 15.06391764100692
STARLINK-1064           
1 44769U 19074BJ  21251.53200903  .00000204  00000-0  14153-4 0  9998
2 44769  53.0457  37.2971 0001474  31.2877 328.8215 15.42162657100761
STARLINK-1067           
1 44771U 19074BL  21250.73548042 -.00000547  00000-0 -17840-4 0  9999
2 44771  53.0571  46.6195 0001759  99.6596 260.4592 15.06401487100581
STARLINK-1068           
1 44772U 19074BM  21251.52242534  .00000147  00000-0  28750-4 0  9991
2 44772  53.0558  23.0869 0001247 112.2547 247.8575 15.06396756100979
JILIN-01 GAOFEN 2A      
1 44777U 19075A   21251.47319510  .00000195  00000-0  15923-4 0  9991
2 44777  97.4563 312.3272 0013125 134.3990 283.7640 15.09742024100360
NINGXIA-1 1             
1 44779U 19076A   21251.46307499 -.00000072  00000-0  37999-4 0  9998
2 44779  45.0082  45.1206 0010341 195.6775 164.3741 14.01694231 93323
NINGXIA-1 2             
1 44780U 19076B   21251.44908065 -.00000072  00000-0  37683-4 0  9994
2 44780  45.0103  45.1801 0008000 191.7578 168.3079 14.01691276 93321
NINGXIA-1 3             
1 44781U 19076C   21251.43611192 -.00000075  00000-0  35865-4 0  9999
2 44781  45.0019  44.6488 0009402 177.5757 182.5126 14.01683434 93329
NINGXIA-1 4             
1 44782U 19076D   21251.42217029 -.00000091  00000-0  25240-4 0  9994
2 44782  45.0102  45.0012 0012777 164.3162 195.8085 14.01689379 93329
NINGXIA-1 5             
1 44783U 19076E   21251.40784044 -.00000100  00000-0  19620-4 0  9995
2 44783  45.0078  44.7782 0011341 181.6453 178.4354 14.01699832 93324
KL-ALPHA A              
1 44785U 19077A   21250.70173484  .00000053  00000-0  58186-4 0  9996
2 44785  88.9125  54.9243 0011710 140.4962 219.7030 13.55789660 89476
KL-ALPHA B              
1 44786U 19077B   21251.48112236  .00000062  00000-0  71253-4 0  9991
2 44786  88.8983  55.0117 0025911 183.6278 176.4694 13.55767065 89039
RWASAT-1                
1 44790U 98067QV  21251.12469023  .00010220  00000-0  11951-3 0  9997
2 44790  51.6368 263.0587 0004266 250.1619 219.8970 15.62233288102366
AQT-D                   
1 44791U 98067QW  21251.31690782  .00023251  00000-0  26080-3 0  9994
2 44791  51.6364 262.4284 0003876 211.2726 148.8038 15.62539649102392
NARSSCUBE-1             
1 44792U 98067QX  21251.43490691  .00062873  00000-0  45956-3 0  9991
2 44792  51.6325 248.0490 0000319 295.3342  64.7623 15.72616399102592
BEIDOU-3 M21            
1 44793U 19078A   21251.16020245 -.00000079  00000-0  10000-3 0  9994
2 44793  55.0455   0.3329 0005273  11.7983   1.0031  1.86232465 12191
BEIDOU-3 M22            
1 44794U 19078B   21251.41594779 -.00000079  00000-0  00000+0 0  9996
2 44794  55.0208   0.3218 0003221   9.4552  85.9450  1.86232861 12198
COSMOS 2542             
1 44797U 19079A   21250.93724746  .00009719  21590-5  15816-3 0  9991
2 44797  97.7266 311.6702 0380873 315.6865  41.4439 15.00851779 97096
TIBA-1                  
1 44800U 19080A   21250.92688247  .00000149  00000-0  00000-0 0  9994
2 44800   0.0575 339.3961 0002367 199.3186 177.6917  1.00274643  6577
INMARSAT GX5            
1 44801U 19080B   21251.36160448  .00000068  00000-0  00000+0 0  9991
2 44801   0.0160 337.6823 0002044 190.6548 320.4704  1.00270215  6612
CARTOSAT-3              
1 44804U 19081A   21251.47347318  .00000828  00000-0  42407-4 0  9996
2 44804  97.4405 313.1033 0014821 119.0732 298.1226 15.19282640 98829
MESHBED                 
1 44806U 19081C   21250.95938084  .00004155  00000-0  18420-3 0  9990
2 44806  97.4425 313.7727 0014945 129.3528 230.9035 15.22069230 98861
FLOCK 4P-10             
1 44808U 19081E   21251.12711804  .00005207  00000-0  23100-3 0  9991
2 44808  97.4419 314.0366 0014475 130.5446 229.7053 15.21929391 98903
FLOCK 4P-11             
1 44809U 19081F   21251.11254914  .00005437  00000-0  24101-3 0  9992
2 44809  97.4423 314.0415 0014834 134.6969 225.5872 15.21930965 98900
FLOCK 4P-12             
1 44810U 19081G   21250.90807033  .00001281  00000-0  59183-4 0  9998
2 44810  97.4419 313.8685 0014191 130.8423 229.4045 15.21928180 98879
FLOCK 4P-4              
1 44811U 19081H   21251.14972704  .00004107  00000-0  18292-3 0  9999
2 44811  97.4459 314.3452 0013473 121.3237 238.9320 15.21930025 98919
FLOCK 4P-3              
1 44812U 19081J   21250.94532693  .00003888  00000-0  17345-3 0  9999
2 44812  97.4460 314.1579 0013392 121.7892 238.4650 15.21913898 98887
FLOCK 4P-2              
1 44813U 19081K   21250.90086583  .00006048  00000-0  26770-3 0  9991
2 44813  97.4429 313.9487 0013015 123.2006 237.0480 15.21954151 98876
FLOCK 4P-1              
1 44814U 19081L   21250.76218368  .00005380  00000-0  23861-3 0  9990
2 44814  97.4431 313.8285 0012963 123.3009 236.9470 15.21941188 98851
FLOCK 4P-7              
1 44816U 19081N   21250.87201746  .00004969  00000-0  22078-3 0  9997
2 44816  97.4428 313.9760 0012647 123.3125 236.9324 15.21917017 98870
FLOCK 4P-5              
1 44818U 19081Q   21250.98887706  .00001593  00000-0  72908-4 0  9995
2 44818  97.4430 314.1340 0012053 124.6462 235.5912 15.21913149 98893
GAOFEN 12-1             
1 44819U 19082A   21251.39028865  .00000055  00000-0  13921-4 0  9998
2 44819  97.8834 272.2024 0001501  58.1810 301.9556 14.80275805 96213
ALE-2                   
1 44824U 19084A   21250.59166795  .00007332  00000-0  10123-3 0  9997
2 44824  96.9211 109.0963 0012842  66.5222 293.7383 15.57361163 99663
COSMOS 2543             
1 44835U 19079D   21250.89236870  .00001706  00000-0  63662-4 0  9994
2 44835  97.8056 305.1008 0102039 345.5148  14.3168 15.24236878 94689
JILIN-01 GAOFEN 2B      
1 44836U 19086A   21251.45217090  .00001078  00000-0  70603-4 0  9994
2 44836  97.4586 312.8847 0009803 225.5340 262.8995 15.09753778 96750
2019-087A               
1 44838U 19087A   21251.50741223  .00002917  00000-0  12623-3 0  9993
2 44838  97.4504  47.6233 0012596 169.6135 231.9963 15.23172416 97503
2019-087B               
1 44839U 19087B   21251.48405984  .00002032  00000-0  90651-4 0  9998
2 44839  97.4469  47.2272 0012594 171.4042 261.1381 15.22488700 97491
2019-087C               
1 44840U 19087C   21251.45043645  .00001927  00000-0  85444-4 0  9995
2 44840  97.4549  48.0151 0011847 173.0219 262.2557 15.22772503 97507
2019-087D               
1 44841U 19087D   21251.49061578  .00005495  00000-0  21856-3 0  9995
2 44841  97.4343  48.2822 0010113 161.2462 270.9335 15.25647761 97590
2019-087E               
1 44842U 19087E   21251.49019968  .00002344  00000-0  10247-3 0  9994
2 44842  97.4439  47.3346 0011258 174.1265 257.8532 15.23028483 97521
2019-087F               
1 44843U 19087F   21251.46992632  .00001761  00000-0  78343-4 0  9994
2 44843  97.4500  47.6979 0012787 184.6883 252.1895 15.22760320 97506
COSMOS 2544 [GLONASS-M] 
1 44850U 19088A   21250.48280456  .00000047  00000-0  00000-0 0  9995
2 44850  64.8958 132.1794 0011370 260.9577 271.4108  2.13102353 13544
TYVAK-0092              
1 44852U 19089A   21251.21986570  .00001728  00000-0  14082-3 0  9995
2 44852  36.9662 327.3629 0005173 121.9483 238.1763 15.00485038 95618
TYVAK-0129              
1 44853U 19089B   21251.51255455  .00001335  00000-0  11081-3 0  9990
2 44853  36.9663 326.9139 0005223 110.4680 249.6623 15.00280019 95668
DUCHIFAT-3              
1 44854U 19089C   21251.56027206  .00000754  00000-0  66429-4 0  9998
2 44854  36.9687 329.1201 0007177  84.1878 275.9697 14.99609837 95580
LEMUR-2-JPGSQUARED      
1 44855U 19089D   21251.50448241  .00001794  00000-0  14814-3 0  9994
2 44855  36.9673 329.6346 0005077  78.6593 281.4719 14.99904902 95634
QPS-SAR-1 IZANAGI       
1 44856U 19089E   21251.53861905  .00001215  00000-0  10416-3 0  9996
2 44856  36.9699 332.6743 0005449  45.4672 314.6519 14.99248989 95601
RISAT-2BR1              
1 44857U 19089F   21251.49215725  .00000472  00000-0  45528-4 0  9992
2 44857  36.9668 336.7048 0008117  33.9777 326.1477 14.98219472 95553
2019-089G               
1 44858U 19089G   21251.51900177  .00001362  00000-0  11591-3 0  9999
2 44858  36.9694 333.5470 0005368  32.8217 327.2858 14.99257747 95596
